OBJECT_NAME,OBJECT_ID,EPOCH,MEAN_MOTION,ECCENTRICITY,INCLINATION,RA_OF_ASC_NODE,ARG_OF_PERICENTER,MEAN_ANOMALY,EPHEMERIS_TYPE,CLASSIFICATION_TYPE,NORAD_CAT_ID,ELEMENT_SET_NO,REV_AT_EPOCH,BSTAR,MEAN_MOTION_DOT,MEAN_MOTION_DDOT
YAMAL 401,2014-082A,2026-06-25T16:26:56.268672,1.00270388,.0000844,0.0079,282.1656,191.4500,136.8875,0,U,40345,999,4200,0,-.218E-5,0
ASTRA 2G,2014-089A,2026-06-25T19:34:43.214016,1.00272838,.0004876,0.0505,20.6806,51.8411,163.2769,0,U,40364,999,4205,0,.16E-5,0
FENGYUN 2G,2014-090A,2026-06-25T18:12:17.409312,1.00269333,.0003599,5.6611,72.7168,151.3751,62.5277,0,U,40367,999,4208,0,-.296E-5,0
MUOS-3,2015-002A,2026-06-25T19:22:08.126400,1.00270966,.0052538,4.5367,43.5566,177.8009,327.6660,0,U,40374,999,4167,0,-.122E-5,0
INMARSAT 5-F2,2015-005A,2026-06-25T08:54:55.028736,1.00272845,.0000321,0.0181,10.2642,353.1584,348.8042,0,U,40384,999,4107,0,-.276E-5,0
ABS-3A,2015-010A,2026-06-25T19:10:56.706816,1.00271082,.0001715,0.0433,54.1002,356.6266,147.9499,0,U,40424,999,4146,0,0,0
EUTELSAT 115 WEST B,2015-010B,2026-06-25T15:28:29.994240,1.00273933,.0000258,0.0119,153.5836,98.5033,138.9219,0,U,40425,999,4147,0,-.15E-6,0
EXPRESS-AM7,2015-012A,2026-06-25T12:47:19.674240,1.00275830,.0003498,0.0254,357.8742,109.5393,38.1191,0,U,40505,999,4109,0,0,0
BEIDOU-3S IGSO-1S,2015-019A,2026-06-24T19:23:47.913216,1.00249638,.00389179,49.1794,295.3695,191.3782,167.8940,0,U,40549,999,4114,0,-.178E-5,0
THOR 7,2015-022A,2026-06-25T17:43:45.908256,1.00271588,.0002699,0.0188,64.7943,26.1572,88.1980,0,U,40613,999,4090,0,.2E-7,0
TURKMENALEM52E/MONACOSAT,2015-023A,2026-06-25T09:25:22.111392,1.00275394,.0003078,0.0190,64.6510,26.1749,16.0949,0,U,40617,999,4093,0,.113E-5,0
DIRECTV 15,2015-026A,2026-06-25T14:22:09.281856,1.00270410,.0000531,0.0181,60.7496,337.7907,347.8520,0,U,40663,999,4054,0,-.92E-6,0
SKY MEXICO-1,2015-026B,2026-06-25T12:13:31.613088,1.00268983,.0002676,0.0256,359.1063,115.2462,263.8772,0,U,40664,999,4053,0,0,0
METEOSAT-11 (MSG-4),2015-034A,2026-06-25T19:29:21.228864,1.00265767,.0002267,3.2222,71.0555,347.3848,157.2924,0,U,40732,999,730,0,.7E-6,0
STAR ONE C4,2015-034B,2026-06-25T12:16:01.375392,1.00271419,.0002173,0.0270,326.2325,100.4190,321.0141,0,U,40733,999,4009,0,-.255E-5,0
WGS F7 (USA 263),2015-036A,2026-06-24T19:38:14.746272,1.00271683,.0000455,0.0402,52.2049,132.9830,197.3076,0,U,40746,999,3994,0,0,0
INTELSAT 34 (IS-34),2015-039A,2026-06-25T08:54:47.542176,1.00270119,.0000477,0.0077,354.3653,26.9885,330.3532,0,U,40874,999,3971,0,-.275E-5,0
EUTELSAT 8 WEST B,2015-039B,2026-06-25T09:08:23.737056,1.00271655,.0003778,0.0627,4.1046,86.4374,312.0769,0,U,40875,999,3973,0,-.56E-6,0
GSAT-6,2015-041A,2026-06-25T16:24:48.972096,1.00270867,.0003136,1.9405,82.4897,5.2993,154.7678,0,U,40880,999,3968,0,-.151E-5,0
INMARSAT 5-F3,2015-042A,2026-06-25T13:41:00.843360,1.00268087,.000049,0.0188,23.8627,108.1069,166.5837,0,U,40882,999,3965,0,.6E-6,0
MUOS-4,2015-044A,2026-06-25T18:05:08.644128,1.00272285,.0057861,4.3459,42.2999,2.8754,214.9783,0,U,40887,999,3964,0,-.86E-6,0
TJS-1,2015-046A,2026-06-25T18:28:13.617120,1.00270824,.0005892,0.3457,84.9296,4.4129,256.6508,0,U,40892,999,3965,0,-.146E-5,0
EXPRESS-AM8,2015-048A,2026-06-25T19:22:38.077824,1.00271669,.0000437,0.0136,314.4396,92.3371,143.8198,0,U,40895,999,3943,0,-.101E-5,0
BEIDOU-3S IGSO-2S,2015-053A,2026-06-25T16:28:33.612960,1.00257859,.0065506,49.2068,258.6794,192.9195,164.0515,0,U,40938,999,3943,0,-.126E-5,0
SKY MUSTER 1 (NBN1A),2015-054A,2026-06-25T13:15:56.506176,1.00270060,.0002053,0.0231,349.6606,100.0271,163.2387,0,U,40940,999,3934,0,0,0
ARSAT 2,2015-054B,2026-06-25T12:12:54.174240,1.00271714,.0002136,0.0146,328.1644,116.1270,291.5797,0,U,40941,999,3938,0,-.215E-5,0
MORELOS 3,2015-056A,2026-06-25T15:28:59.944800,1.00271873,.0000674,3.1937,15.2859,4.1486,13.4933,0,U,40946,999,3937,0,-.36E-6,0
APSTAR-9,2015-059A,2026-06-25T13:47:20.713920,1.00269428,.0002815,0.0347,302.2734,234.9102,85.3413,0,U,40982,999,3920,0,-.256E-5,0
TURKSAT 4B,2015-060A,2026-06-25T19:40:50.128032,1.00271821,.0002471,0.0169,30.8808,59.3079,168.9141,0,U,40984,999,3918,0,.126E-5,0
ZHONGXING-2C,2015-063A,2026-06-25T19:56:13.383744,1.00274833,.0007533,0.2967,89.4464,95.9917,131.0010,0,U,41021,999,3906,0,-.314E-5,0
GSAT-15,2015-065A,2026-06-25T18:10:32.575872,1.00271415,.0004589,0.0505,264.0159,171.6067,204.4272,0,U,41028,999,3888,0,-.247E-5,0
BADR-7 (ARABSAT-6B),2015-065B,2026-06-25T19:34:05.775168,1.00272609,.0003891,0.0377,215.0846,340.6616,37.6964,0,U,41029,999,3885,0,.155E-5,0
