YAMAL 401               
1 40345U 14082A   26176.68537348 -.00000218  00000+0  00000+0 0  9997
2 40345   0.0079 282.1656 0000844 191.4500 136.8875  1.00270388 42003
ASTRA 2G                
1 40364U 14089A   26176.81577794  .00000160  00000+0  00000+0 0  9994
2 40364   0.0505  20.6806 0004876  51.8411 163.2769  1.00272838 42052
FENGYUN 2G              
1 40367U 14090A   26176.75853483 -.00000296  00000+0  00000+0 0  9995
2 40367   5.6611  72.7168 0003599 151.3751  62.5277  1.00269333 42081
MUOS-3                  
1 40374U 15002A   26176.80703850 -.00000122  00000+0  00000+0 0  9993
2 40374   4.5367  43.5566 0052538 177.8009 327.6660  1.00270966 41678
INMARSAT 5-F2           
1 40384U 15005A   26176.37147024 -.00000276  00000+0  00000+0 0  9994
2 40384   0.0181  10.2642 0000321 353.1584 348.8042  1.00272845 41071
ABS-3A                  
1 40424U 15010A   26176.79926744  .00000000  00000+0  00000+0 0  9999
2 40424   0.0433  54.1002 0001715 356.6266 147.9499  1.00271082 41465
EUTELSAT 115 WEST B     
1 40425U 15010B   26176.64479160 -.00000015  00000+0  00000+0 0  9996
2 40425   0.0119 153.5836 0000258  98.5033 138.9219  1.00273933 41479
EXPRESS-AM7             
1 40505U 15012A   26176.53286660  .00000000  00000+0  00000+0 0  9999
2 40505   0.0254 357.8742 0003498 109.5393  38.1191  1.00275830 41090
BEIDOU-3S IGSO-1S       
1 40549U 15019A   26175.80819344 -.00000178  00000+0  00000+0 0  9991
2 40549  49.1794 295.3695 0038917 191.3782 167.8940  1.00249638 41144
THOR 7                  
1 40613U 15022A   26176.73872579  .00000002  00000+0  00000+0 0  9994
2 40613   0.0188  64.7943 0002699  26.1572  88.1980  1.00271588 40904
TURKMENALEM52E/MONACOSAT
1 40617U 15023A   26176.39261703  .00000113  00000+0  00000+0 0  9995
2 40617   0.0190  64.6510 0003078  26.1749  16.0949  1.00275394 40935
DIRECTV 15              
1 40663U 15026A   26176.59871854 -.00000092  00000+0  00000+0 0  9992
2 40663   0.0181  60.7496 0000531 337.7907 347.8520  1.00270410 40545
SKY MEXICO-1            
1 40664U 15026B   26176.50939367  .00000000  00000+0  00000+0 0  9996
2 40664   0.0256 359.1063 0002676 115.2462 263.8772  1.00268983 40538
METEOSAT-11 (MSG-4)     
1 40732U 15034A   26176.81205126  .00000070  00000+0  00000+0 0  9991
2 40732   3.2222  71.0555 0002267 347.3848 157.2924  1.00265767  7300
STAR ONE C4             
1 40733U 15034B   26176.51112703 -.00000255  00000+0  00000+0 0  9993
2 40733   0.0270 326.2325 0002173 100.4190 321.0141  1.00271419 40099
WGS F7 (USA 263)        
1 40746U 15036A   26175.81822623  .00000000  00000+0  00000+0 0  9997
2 40746   0.0402  52.2049 0000455 132.9830 197.3076  1.00271683 39947
INTELSAT 34 (IS-34)     
1 40874U 15039A   26176.37138359 -.00000275  00000+0  00000+0 0  9995
2 40874   0.0077 354.3653 0000477  26.9885 330.3532  1.00270119 39714
EUTELSAT 8 WEST B       
1 40875U 15039B   26176.38083029 -.00000056  00000+0  00000+0 0  9997
2 40875   0.0627   4.1046 0003778  86.4374 312.0769  1.00271655 39730
GSAT-6                  
1 40880U 15041A   26176.68390014 -.00000151  00000+0  00000+0 0  9990
2 40880   1.9405  82.4897 0003136   5.2993 154.7678  1.00270867 39685
INMARSAT 5-F3           
1 40882U 15042A   26176.57014865  .00000060  00000+0  00000+0 0  9996
2 40882   0.0188  23.8627 0000490 108.1069 166.5837  1.00268087 39658
MUOS-4                  
1 40887U 15044A   26176.75357227 -.00000086  00000+0  00000+0 0  9994
2 40887   4.3459  42.2999 0057861   2.8754 214.9783  1.00272285 39645
TJS-1                   
1 40892U 15046A   26176.76960205 -.00000146  00000+0  00000+0 0  9996
2 40892   0.3457  84.9296 0005892   4.4129 256.6508  1.00270824 39655
EXPRESS-AM8             
1 40895U 15048A   26176.80738516 -.00000101  00000+0  00000+0 0  9995
2 40895   0.0136 314.4396 0000437  92.3371 143.8198  1.00271669 39432
BEIDOU-3S IGSO-2S       
1 40938U 15053A   26176.68650015 -.00000126  00000+0  00000+0 0  9999
2 40938  49.2068 258.6794 0065506 192.9195 164.0515  1.00257859 39432
SKY MUSTER 1 (NBN1A)    
1 40940U 15054A   26176.55273734  .00000000  00000+0  00000+0 0  9998
2 40940   0.0231 349.6606 0002053 100.0271 163.2387  1.00270060 39345
ARSAT 2                 
1 40941U 15054B   26176.50896035 -.00000215  00000+0  00000+0 0  9998
2 40941   0.0146 328.1644 0002136 116.1270 291.5797  1.00271714 39385
MORELOS 3               
1 40946U 15056A   26176.64513825 -.00000036  00000+0  00000+0 0  9994
2 40946   3.1937  15.2859 0000674   4.1486  13.4933  1.00271873 39372
APSTAR-9                
1 40982U 15059A   26176.57454530 -.00000256  00000+0  00000+0 0  9990
2 40982   0.0347 302.2734 0002815 234.9102  85.3413  1.00269428 39207
TURKSAT 4B              
1 40984U 15060A   26176.82002463  .00000126  00000+0  00000+0 0  9991
2 40984   0.0169  30.8808 0002471  59.3079 168.9141  1.00271821 39180
ZHONGXING-2C            
1 41021U 15063A   26176.83071046 -.00000314  00000+0  00000+0 0  9991
2 41021   0.2967  89.4464 0007533  95.9917 131.0010  1.00274833 39069
GSAT-15                 
1 41028U 15065A   26176.75732148 -.00000247  00000+0  00000+0 0  9993
2 41028   0.0505 264.0159 0004589 171.6067 204.4272  1.00271415 38887
BADR-7 (ARABSAT-6B)     
1 41029U 15065B   26176.81534462  .00000155  00000+0  00000+0 0  9997
2 41029   0.0377 215.0846 0003891 340.6616  37.6964  1.00272609 38854
